{
  "norad_id": 64908,
  "name": "STARLINK-34702",
  "history": [
    {
      "epoch": "2026-03-28T18:01:51.788640Z",
      "apogee_km": 475.9097186960016,
      "perigee_km": 474.5671424491529,
      "latitude_deg": -4.7128854455984096e-05,
      "longitude_deg": 160.3935340059862,
      "height_km": 475.7889130931317,
      "semi_major_axis_km": 6853.375430572577,
      "eccentricity": 9.795e-05,
      "inclination_deg": 53.1572,
      "raan_deg": 257.0266,
      "arg_perigee_deg": 58.7864,
      "mean_anomaly_deg": 301.3232,
      "mean_motion_rev_day": 15.30192176
    }
  ]
}