{"fetched_at":"2026-03-30T06:02:59Z","count":15439,"tles":[{"name":"STARLINK-34702","line1":"1 64908U 25157E   26087.75129385  .00022553  00000+0  77147-3 0  9995","line2":"2 64908  53.1572 257.0266 0000979  58.7864 301.3232 15.30192176 39048","category":"Starlink"}]}